[{"OBJECT_NAME":"YAOGAN-35 05C","OBJECT_ID":"2022-109D","EPOCH":"2026-03-09T23:24:49.254048","MEAN_MOTION":15.2196891,"ECCENTRICITY":0.00028309,"INCLINATION":34.9905,"RA_OF_ASC_NODE":260.7893,"ARG_OF_PERICENTER":75.4847,"MEAN_ANOMALY":284.6181,"EPHEMERIS_TYPE":0,"CLASSIFICATION_TYPE":"U","NORAD_CAT_ID":53763,"ELEMENT_SET_NO":999,"REV_AT_EPOCH":19524,"BSTAR":0.00045958493,"MEAN_MOTION_DOT":0.00010718,"MEAN_MOTION_DDOT":0},{"OBJECT_NAME":"ELECTRON KICK STAGE R\/B","OBJECT_ID":"2024-248B","EPOCH":"2026-03-09T20:49:52.700448","MEAN_MOTION":15.26602112,"ECCENTRICITY":0.00382118,"INCLINATION":97.6105,"RA_OF_ASC_NODE":34.9036,"ARG_OF_PERICENTER":284.4829,"MEAN_ANOMALY":75.2171,"EPHEMERIS_TYPE":0,"CLASSIFICATION_TYPE":"U","NORAD_CAT_ID":62407,"ELEMENT_SET_NO":999,"REV_AT_EPOCH":6727,"BSTAR":0.0006831254,"MEAN_MOTION_DOT":0.00018217,"MEAN_MOTION_DDOT":0}]
